ONEWEB-0646             
1 55810U 23029Q   25334.49301569  .00000026  00000+0  31754-4 0  9990
2 55810  87.9196 344.5167 0001992  83.8304 276.3056 13.19726736132682
ONEWEB-0648             
1 55811U 23029R   25334.52109145  .00000266  00000+0  68160-3 0  9997
2 55811  87.8984 329.2838 0002763  83.5347 276.6097 13.14503368133298
ONEWEB-0649             
1 55812U 23029S   25334.51826579  .00000054  00000+0  10196-3 0  9995
2 55812  87.9203 344.5072 0002229  87.1917 272.9471 13.19723997132723
ONEWEB-0650             
1 55813U 23029T   25334.58934526  .00000119  00000+0  26523-3 0  9998
2 55813  87.9192 344.5002 0002232  82.7862 277.3524 13.19727357132708
ONEWEB-0652             
1 55814U 23029U   25334.42593902  .00000089  00000+0  20583-3 0  9997
2 55814  87.8981 329.3234 0001623  90.5320 269.5996 13.14503440133258
ONEWEB-0653             
1 55815U 23029V   25334.48619986 -.00000221  00000+0 -62995-3 0  9998
2 55815  87.8983 329.3009 0001792  93.9351 266.1984 13.14503434133296
ONEWEB-0654             
1 55816U 23029W   25334.48143833 -.00000192  00000+0 -55111-3 0  9991
2 55816  87.8981 329.3013 0001506  97.1983 262.9318 13.14503580133310
ONEWEB-0656             
1 55817U 23029X   25334.49401452  .00000087  00000+0  18110-3 0  9996
2 55817  87.9192 314.0523 0001498  96.1910 263.9394 13.20769664134929
ONEWEB-0657             
1 55818U 23029Y   25334.58463160  .00000096  00000+0  20828-3 0  9990
2 55818  87.9189 344.5034 0001110  75.3845 284.7411 13.19725378132716
ONEWEB-0658             
1 55819U 23029Z   25334.50405957  .00000010  00000+0 -68915-5 0  9991
2 55819  87.9210 344.4708 0002100  81.2294 278.9077 13.19724679132719
ONEWEB-0660             
1 55820U 23029AA  25334.53536179  .00000181  00000+0  45299-3 0  9993
2 55820  87.8989 329.2689 0002105  91.8352 268.3019 13.14502617133305
ONEWEB-0661             
1 55821U 23029AB  25334.41801514  .00000051  00000+0  10339-3 0  9992
2 55821  87.8983 329.3585 0002082  95.1599 264.9768 13.14503721133276
ONEWEB-0662             
1 55822U 23029AC  25334.52902050  .00000185  00000+0  46514-3 0  9994
2 55822  87.8981 329.3426 0002144  90.5983 269.5392 13.14503431133333
ONEWEB-0663             
1 55823U 23029AD  25334.46581365  .00000011  00000+0 -48563-5 0  9997
2 55823  87.9204 314.1231 0002291  85.4332 274.7063 13.20852305134915
ONEWEB-0664             
1 55824U 23029AE  25334.48139932  .00000114  00000+0  24871-3 0  9996
2 55824  87.9182 314.1278 0001921  96.9356 263.1996 13.20773293134919
ONEWEB-0665             
1 55825U 23029AF  25334.49096133 -.00000177  00000+0 -51251-3 0  9996
2 55825  87.8984 329.3215 0002113  88.8727 271.2645 13.14503934133303
