[{"OBJECT_NAME":"ONEWEB-0646","OBJECT_ID":"2023-029Q","EPOCH":"2025-11-30T11:49:56.555616","MEAN_MOTION":13.19726736,"ECCENTRICITY":0.00019925,"INCLINATION":87.9196,"RA_OF_ASC_NODE":344.5167,"ARG_OF_PERICENTER":83.8304,"MEAN_ANOMALY":276.3056,"EPHEMERIS_TYPE":0,"CLASSIFICATION_TYPE":"U","NORAD_CAT_ID":55810,"ELEMENT_SET_NO":999,"REV_AT_EPOCH":13268,"BSTAR":3.1754349e-5,"MEAN_MOTION_DOT":2.6e-7,"MEAN_MOTION_DDOT":0},{"OBJECT_NAME":"ONEWEB-0648","OBJECT_ID":"2023-029R","EPOCH":"2025-11-30T12:30:22.301280","MEAN_MOTION":13.14503368,"ECCENTRICITY":0.00027635,"INCLINATION":87.8984,"RA_OF_ASC_NODE":329.2838,"ARG_OF_PERICENTER":83.5347,"MEAN_ANOMALY":276.6097,"EPHEMERIS_TYPE":0,"CLASSIFICATION_TYPE":"U","NORAD_CAT_ID":55811,"ELEMENT_SET_NO":999,"REV_AT_EPOCH":13329,"BSTAR":0.00068160329,"MEAN_MOTION_DOT":2.66e-6,"MEAN_MOTION_DDOT":0},{"OBJECT_NAME":"ONEWEB-0649","OBJECT_ID":"2023-029S","EPOCH":"2025-11-30T12:26:18.164256","MEAN_MOTION":13.19723997,"ECCENTRICITY":0.00022299,"INCLINATION":87.9203,"RA_OF_ASC_NODE":344.5072,"ARG_OF_PERICENTER":87.1917,"MEAN_ANOMALY":272.9471,"EPHEMERIS_TYPE":0,"CLASSIFICATION_TYPE":"U","NORAD_CAT_ID":55812,"ELEMENT_SET_NO":999,"REV_AT_EPOCH":13272,"BSTAR":0.00010196081,"MEAN_MOTION_DOT":5.4e-7,"MEAN_MOTION_DDOT":0},{"OBJECT_NAME":"ONEWEB-0650","OBJECT_ID":"2023-029T","EPOCH":"2025-11-30T14:08:39.430464","MEAN_MOTION":13.19727357,"ECCENTRICITY":0.0002232,"INCLINATION":87.9192,"RA_OF_ASC_NODE":344.5002,"ARG_OF_PERICENTER":82.7862,"MEAN_ANOMALY":277.3524,"EPHEMERIS_TYPE":0,"CLASSIFICATION_TYPE":"U","NORAD_CAT_ID":55813,"ELEMENT_SET_NO":999,"REV_AT_EPOCH":13270,"BSTAR":0.00026523192,"MEAN_MOTION_DOT":1.19e-6,"MEAN_MOTION_DDOT":0},{"OBJECT_NAME":"ONEWEB-0652","OBJECT_ID":"2023-029U","EPOCH":"2025-11-30T10:13:21.131328","MEAN_MOTION":13.1450344,"ECCENTRICITY":0.00016236,"INCLINATION":87.8981,"RA_OF_ASC_NODE":329.3234,"ARG_OF_PERICENTER":90.532,"MEAN_ANOMALY":269.5996,"EPHEMERIS_TYPE":0,"CLASSIFICATION_TYPE":"U","NORAD_CAT_ID":55814,"ELEMENT_SET_NO":999,"REV_AT_EPOCH":13325,"BSTAR":0.00020583249,"MEAN_MOTION_DOT":8.9e-7,"MEAN_MOTION_DDOT":0},{"OBJECT_NAME":"ONEWEB-0653","OBJECT_ID":"2023-029V","EPOCH":"2025-11-30T11:40:07.667904","MEAN_MOTION":13.14503434,"ECCENTRICITY":0.00017927,"INCLINATION":87.8983,"RA_OF_ASC_NODE":329.3009,"ARG_OF_PERICENTER":93.9351,"MEAN_ANOMALY":266.1984,"EPHEMERIS_TYPE":0,"CLASSIFICATION_TYPE":"U","NORAD_CAT_ID":55815,"ELEMENT_SET_NO":999,"REV_AT_EPOCH":13329,"BSTAR":-0.00062995028,"MEAN_MOTION_DOT":-2.21e-6,"MEAN_MOTION_DDOT":0},{"OBJECT_NAME":"ONEWEB-0654","OBJECT_ID":"2023-029W","EPOCH":"2025-11-30T11:33:16.271712","MEAN_MOTION":13.1450358,"ECCENTRICITY":0.00015066,"INCLINATION":87.8981,"RA_OF_ASC_NODE":329.3013,"ARG_OF_PERICENTER":97.1983,"MEAN_ANOMALY":262.9318,"EPHEMERIS_TYPE":0,"CLASSIFICATION_TYPE":"U","NORAD_CAT_ID":55816,"ELEMENT_SET_NO":999,"REV_AT_EPOCH":13331,"BSTAR":-0.00055110939,"MEAN_MOTION_DOT":-1.92e-6,"MEAN_MOTION_DDOT":0},{"OBJECT_NAME":"ONEWEB-0656","OBJECT_ID":"2023-029X","EPOCH":"2025-11-30T11:51:22.854528","MEAN_MOTION":13.20769664,"ECCENTRICITY":0.00014984,"INCLINATION":87.9192,"RA_OF_ASC_NODE":314.0523,"ARG_OF_PERICENTER":96.191,"MEAN_ANOMALY":263.9394,"EPHEMERIS_TYPE":0,"CLASSIFICATION_TYPE":"U","NORAD_CAT_ID":55817,"ELEMENT_SET_NO":999,"REV_AT_EPOCH":13492,"BSTAR":0.00018109656,"MEAN_MOTION_DOT":8.7e-7,"MEAN_MOTION_DDOT":0},{"OBJECT_NAME":"ONEWEB-0657","OBJECT_ID":"2023-029Y","EPOCH":"2025-11-30T14:01:52.170240","MEAN_MOTION":13.19725378,"ECCENTRICITY":0.00011104,"INCLINATION":87.9189,"RA_OF_ASC_NODE":344.5034,"ARG_OF_PERICENTER":75.3845,"MEAN_ANOMALY":284.7411,"EPHEMERIS_TYPE":0,"CLASSIFICATION_TYPE":"U","NORAD_CAT_ID":55818,"ELEMENT_SET_NO":999,"REV_AT_EPOCH":13271,"BSTAR":0.00020827623,"MEAN_MOTION_DOT":9.6e-7,"MEAN_MOTION_DDOT":0},{"OBJECT_NAME":"ONEWEB-0658","OBJECT_ID":"2023-029Z","EPOCH":"2025-11-30T12:05:50.746848","MEAN_MOTION":13.19724679,"ECCENTRICITY":0.00021008,"INCLINATION":87.921,"RA_OF_ASC_NODE":344.4708,"ARG_OF_PERICENTER":81.2294,"MEAN_ANOMALY":278.9077,"EPHEMERIS_TYPE":0,"CLASSIFICATION_TYPE":"U","NORAD_CAT_ID":55819,"ELEMENT_SET_NO":999,"REV_AT_EPOCH":13271,"BSTAR":-6.891514e-6,"MEAN_MOTION_DOT":1.0e-7,"MEAN_MOTION_DDOT":0},{"OBJECT_NAME":"ONEWEB-0660","OBJECT_ID":"2023-029AA","EPOCH":"2025-11-30T12:50:55.258656","MEAN_MOTION":13.14502617,"ECCENTRICITY":0.00021057,"INCLINATION":87.8989,"RA_OF_ASC_NODE":329.2689,"ARG_OF_PERICENTER":91.8352,"MEAN_ANOMALY":268.3019,"EPHEMERIS_TYPE":0,"CLASSIFICATION_TYPE":"U","NORAD_CAT_ID":55820,"ELEMENT_SET_NO":999,"REV_AT_EPOCH":13330,"BSTAR":0.00045299453,"MEAN_MOTION_DOT":1.81e-6,"MEAN_MOTION_DDOT":0},{"OBJECT_NAME":"ONEWEB-0661","OBJECT_ID":"2023-029AB","EPOCH":"2025-11-30T10:01:56.508096","MEAN_MOTION":13.14503721,"ECCENTRICITY":0.00020821,"INCLINATION":87.8983,"RA_OF_ASC_NODE":329.3585,"ARG_OF_PERICENTER":95.1599,"MEAN_ANOMALY":264.9768,"EPHEMERIS_TYPE":0,"CLASSIFICATION_TYPE":"U","NORAD_CAT_ID":55821,"ELEMENT_SET_NO":999,"REV_AT_EPOCH":13327,"BSTAR":0.00010338732,"MEAN_MOTION_DOT":5.1e-7,"MEAN_MOTION_DDOT":0},{"OBJECT_NAME":"ONEWEB-0662","OBJECT_ID":"2023-029AC","EPOCH":"2025-11-30T12:41:47.371200","MEAN_MOTION":13.14503431,"ECCENTRICITY":0.0002144,"INCLINATION":87.8981,"RA_OF_ASC_NODE":329.3426,"ARG_OF_PERICENTER":90.5983,"MEAN_ANOMALY":269.5392,"EPHEMERIS_TYPE":0,"CLASSIFICATION_TYPE":"U","NORAD_CAT_ID":55822,"ELEMENT_SET_NO":999,"REV_AT_EPOCH":13333,"BSTAR":0.00046514324,"MEAN_MOTION_DOT":1.85e-6,"MEAN_MOTION_DDOT":0},{"OBJECT_NAME":"ONEWEB-0663","OBJECT_ID":"2023-029AD","EPOCH":"2025-11-30T11:10:46.299360","MEAN_MOTION":13.20852305,"ECCENTRICITY":0.0002291,"INCLINATION":87.9204,"RA_OF_ASC_NODE":314.1231,"ARG_OF_PERICENTER":85.4332,"MEAN_ANOMALY":274.7063,"EPHEMERIS_TYPE":0,"CLASSIFICATION_TYPE":"U","NORAD_CAT_ID":55823,"ELEMENT_SET_NO":999,"REV_AT_EPOCH":13491,"BSTAR":-4.856312e-6,"MEAN_MOTION_DOT":1.1e-7,"MEAN_MOTION_DDOT":0},{"OBJECT_NAME":"ONEWEB-0664","OBJECT_ID":"2023-029AE","EPOCH":"2025-11-30T11:33:12.901248","MEAN_MOTION":13.20773293,"ECCENTRICITY":0.0001921,"INCLINATION":87.9182,"RA_OF_ASC_NODE":314.1278,"ARG_OF_PERICENTER":96.9356,"MEAN_ANOMALY":263.1996,"EPHEMERIS_TYPE":0,"CLASSIFICATION_TYPE":"U","NORAD_CAT_ID":55824,"ELEMENT_SET_NO":999,"REV_AT_EPOCH":13491,"BSTAR":0.00024870692,"MEAN_MOTION_DOT":1.14e-6,"MEAN_MOTION_DDOT":0},{"OBJECT_NAME":"ONEWEB-0665","OBJECT_ID":"2023-029AF","EPOCH":"2025-11-30T11:46:59.058912","MEAN_MOTION":13.14503934,"ECCENTRICITY":0.00021135,"INCLINATION":87.8984,"RA_OF_ASC_NODE":329.3215,"ARG_OF_PERICENTER":88.8727,"MEAN_ANOMALY":271.2645,"EPHEMERIS_TYPE":0,"CLASSIFICATION_TYPE":"U","NORAD_CAT_ID":55825,"ELEMENT_SET_NO":999,"REV_AT_EPOCH":13330,"BSTAR":-0.0005125096,"MEAN_MOTION_DOT":-1.77e-6,"MEAN_MOTION_DDOT":0}]
